{
  "type": "FeatureCollection",
  "features": [
    {
      "type": "Feature",
      "geometry": { "type": "Point", "coordinates": [56.25, 26.57] },
      "properties": { "name": "Détroit d'Ormuz", "note": "Coordonnées approximatives, repère tactique" }
    },
    {
      "type": "Feature",
      "geometry": { "type": "Point", "coordinates": [100.5, 3.0] },
      "properties": { "name": "Détroit de Malacca", "note": "Coordonnées approximatives, repère tactique" }
    },
    {
      "type": "Feature",
      "geometry": { "type": "Point", "coordinates": [32.32, 31.26] },
      "properties": { "name": "Canal de Suez (entrée nord)", "note": "Coordonnées approximatives, repère tactique" }
    },
    {
      "type": "Feature",
      "geometry": { "type": "Point", "coordinates": [43.4, 12.6] },
      "properties": { "name": "Détroit de Bab-el-Mandeb", "note": "Coordonnées approximatives, repère tactique" }
    },
    {
      "type": "Feature",
      "geometry": { "type": "Point", "coordinates": [29.06, 41.11] },
      "properties": { "name": "Détroit du Bosphore", "note": "Coordonnées approximatives, repère tactique" }
    },
    {
      "type": "Feature",
      "geometry": { "type": "Point", "coordinates": [-79.55, 8.95] },
      "properties": { "name": "Canal de Panama (entrée Pacifique)", "note": "Coordonnées approximatives, repère tactique" }
    },
    {
      "type": "Feature",
      "geometry": { "type": "Point", "coordinates": [-5.6, 35.95] },
      "properties": { "name": "Détroit de Gibraltar", "note": "Coordonnées approximatives, repère tactique" }
    },
    {
      "type": "Feature",
      "geometry": { "type": "Point", "coordinates": [12.6, 55.65] },
      "properties": { "name": "Détroits danois (Øresund)", "note": "Coordonnées approximatives, repère tactique" }
    }
  ]
}
